NUSAT-1 (FRESCO)        
1 41557U 16033B   21323.53555735  .00003455  00000+0  11948-3 0  9996
2 41557  97.3938  56.6912 0013611  49.7165   7.8339 15.30497230305244
BEESAT-4                
1 41619U 16040W   21323.41077973  .00003368  00000+0  13109-3 0  9997
2 41619  97.2501  15.0822 0011537 136.9160 223.2985 15.26616010288645
CAS-2T & KS-1Q          
1 41847U 16066G   21323.40821243  .00000229  00000+0  43605-4 0  9992
2 41847  98.5824  23.0329 0365927 117.6735 246.2089 14.38286483264159
NAYIF-1 (EO-88)         
1 42017U 17008BX  21323.43314528  .00003754  00000+0  13418-3 0  9999
2 42017  97.2995  28.2167 0004132 280.3058  79.7717 15.29423455264931
ZHUHAI-1 02 (CAS-4B)    
1 42759U 17034B   21323.58372734  .00001024  00000+0  74223-4 0  9990
2 42759  43.0182  48.0481 0007340  44.7591  91.3552 15.10549861244607
ZHUHAI-1 01 (CAS-4A)    
1 42761U 17034D   21323.56497038  .00001027  00000+0  74243-4 0  9991
2 42761  43.0182  47.0909 0007710  47.3321  84.6792 15.10636551244609
MAX VALIER SAT          
1 42778U 17036P   21323.39976668  .00002138  00000+0  90173-4 0  9997
2 42778  97.2363   6.8261 0011312 358.4438   1.6763 15.24310256244884
RADFXSAT (FOX-1B)       
1 43017U 17073E   21323.52576643  .00000902  00000+0  73775-4 0  9995
2 43017  97.6925 221.2641 0254151 153.9205 207.5074 14.79953626216057
FOX-1D (AO-92)          
1 43137U 18004AC  21323.45341973  .00002633  00000+0  10487-3 0  9994
2 43137  97.3938  35.8485 0009274  34.2027 325.9807 15.26084032214295
DIWATA-2B               
1 43678U 18084H   21323.53075741  .00000621  00000+0  67299-4 0  9997
2 43678  97.9435  89.8028 0008394 257.6535 102.3741 14.91838561166556
ES'HAIL 2               
1 43700U 18090A   21323.31164787  .00000158  00000+0  00000+0 0  9992
2 43700   0.0152 296.9648 0002370 321.3556 298.2508  1.00270281 10922
FOX-1CLIFF (AO-95)      
1 43770U 18099N   21323.41911933  .00000770  00000+0  74476-4 0  9995
2 43770  97.6497  30.0644 0012905 258.0594 101.9180 14.95549980161611
ITASAT 1                
1 43786U 18099AE  21323.50987683  .00000172  00000+0  20469-4 0  9996
2 43786  97.6516  30.9387 0013810 250.2469 109.7263 14.95811069161667
JY1SAT (JO-97)          
1 43803U 18099AX  21323.44617363  .00000420  00000+0  42351-4 0  9994
2 43803  97.6476  30.6149 0013800 249.9401 110.0335 14.96104292161664
UWE-4                   
1 43880U 18111E   21323.52586905  .00000410  00000+0  40508-4 0  9991
2 43880  97.6768 228.5275 0011269 309.4484  50.5740 14.97126083158286
NEXUS (FO-99)           
1 43937U 19003F   21323.38643118  .00003117  00000+0  12044-3 0  9999
2 43937  97.1586   0.2911 0022602 178.1703 181.9623 15.26724616157896
PSAT2 (NO-104)          
1 44354U 19036R   21322.91184392  .00022845  00000+0  27800-3 0  9996
2 44354  28.5247 172.9772 0300132 157.5870 203.8144 15.20246123132449
BRICSAT2 (NO-103)       
1 44355U 19036S   21323.47782718  .00044517 -60879-5  36469-3 0  9993
2 44355  28.5254  93.0003 0206493 288.0983  69.7229 15.45453707133290
JAISAT-1                
1 44419U 19038F   21323.35483495  .00001741  00000+0  97905-4 0  9991
2 44419  97.6094 287.7126 0021901 134.4690 225.8337 15.14451317131234
DUCHIFAT-3              
1 44854U 19089C   21323.53330949  .00001024  00000+0  87486-4 0  9992
2 44854  36.9642 263.3533 0009097 310.6370  49.3584 14.99801705106393
CAS-6 (TO-108)          
1 44881U 19093C   21323.47456507  .00000123  00000+0  22371-4 0  9990
2 44881  97.9138  40.5253 0015733 144.5942 215.6332 14.81511245103683
RS-44 & BREEZE-KM R/B   
1 44909U 19096E   21323.42871258  .00000031  00000+0  70479-4 0  9993
2 44909  82.5239   9.8380 0218518  90.8206 271.7938 12.79711240 88642
ORBITAL FACTORY 2 (OF-2)
1 45113U 19071C   21323.52740981  .00005658  00000+0  16120-3 0  9995
2 45113  51.6424   4.7902 0011344 130.4230 229.7745 15.37584673101014
HUSKYSAT-1 (HO-107)     
1 45119U 19071J   21323.54187821  .00004603  00000+0  13365-3 0  9998
2 45119  51.6419   4.1261 0010949 126.8164 233.3826 15.37464117101012
BY70-2                  
1 45857U 20042B   21323.48446796  .00001790  00000+0  25746-3 0  9999
2 45857  97.9742  37.5892 0012090  78.8363 281.4223 14.77579331 74437
SALSAT                  
1 46495U 20068K   21323.59155742  .00000022  00000+0  61558-5 0  9996
2 46495  97.7049 260.2710 0015420 269.8674  90.0786 15.03659364 62648
BY70-3                  
1 46839U 20079N   21323.60931481  .00005208  00000+0  15432-3 0  9993
2 46839  97.2273  34.3980 0007359  23.4753 121.8542 15.35260959 57995
RADFXSAT-2 (AO-109)     
1 47311U 21002C   21323.33369056  .00002368  00000+0  11177-3 0  9995
2 47311  60.6863  71.1316 0036837 126.5596 233.8891 15.22417815 46445
UVSQ-SAT                
1 47438U 21006AB  21323.10371275  .00001449  00000+0  84192-4 0  9997
2 47438  97.4691  21.4399 0011053 285.8304  74.1709 15.13640457 45443
DIY-1 (ARDUIQUBE)       
1 47963U 21022AH  21323.46356395  .00003601  00000+0  23467-3 0  9992
2 47963  97.5460 223.0213 0020139 130.5007 229.7981 15.08376409 35252
